[{"OBJECT_NAME":"HULIANWANG DIGUI-49","OBJECT_ID":"2025-168A","EPOCH":"2026-03-05T22:33:14.620320","MEAN_MOTION":13.29338863,"ECCENTRICITY":0.00074223,"INCLINATION":50.0049,"RA_OF_ASC_NODE":336.2742,"ARG_OF_PERICENTER":154.4294,"MEAN_ANOMALY":205.6947,"EPHEMERIS_TYPE":0,"CLASSIFICATION_TYPE":"U","NORAD_CAT_ID":65106,"ELEMENT_SET_NO":999,"REV_AT_EPOCH":2895,"BSTAR":0.00018905199,"MEAN_MOTION_DOT":-3.6e-7,"MEAN_MOTION_DDOT":0},{"OBJECT_NAME":"HULIANWANG DIGUI-50","OBJECT_ID":"2025-168B","EPOCH":"2026-03-05T22:21:08.643456","MEAN_MOTION":13.29339475,"ECCENTRICITY":0.00083901,"INCLINATION":50.0019,"RA_OF_ASC_NODE":336.1734,"ARG_OF_PERICENTER":140.4085,"MEAN_ANOMALY":219.7401,"EPHEMERIS_TYPE":0,"CLASSIFICATION_TYPE":"U","NORAD_CAT_ID":65107,"ELEMENT_SET_NO":999,"REV_AT_EPOCH":2895,"BSTAR":0.00017974979,"MEAN_MOTION_DOT":-4.1e-7,"MEAN_MOTION_DDOT":0},{"OBJECT_NAME":"HULIANWANG DIGUI-51","OBJECT_ID":"2025-168C","EPOCH":"2026-03-05T22:09:05.871168","MEAN_MOTION":13.29339746,"ECCENTRICITY":0.00097453,"INCLINATION":50.0056,"RA_OF_ASC_NODE":336.1997,"ARG_OF_PERICENTER":140.3908,"MEAN_ANOMALY":219.7678,"EPHEMERIS_TYPE":0,"CLASSIFICATION_TYPE":"U","NORAD_CAT_ID":65108,"ELEMENT_SET_NO":999,"REV_AT_EPOCH":2895,"BSTAR":0.0001681702,"MEAN_MOTION_DOT":-4.6e-7,"MEAN_MOTION_DDOT":0},{"OBJECT_NAME":"HULIANWANG DIGUI-52","OBJECT_ID":"2025-168D","EPOCH":"2026-03-05T21:57:14.020704","MEAN_MOTION":13.29338403,"ECCENTRICITY":0.00096213,"INCLINATION":50.005,"RA_OF_ASC_NODE":336.1392,"ARG_OF_PERICENTER":153.2702,"MEAN_ANOMALY":206.8668,"EPHEMERIS_TYPE":0,"CLASSIFICATION_TYPE":"U","NORAD_CAT_ID":65109,"ELEMENT_SET_NO":999,"REV_AT_EPOCH":2895,"BSTAR":0.00018804595,"MEAN_MOTION_DOT":-3.7e-7,"MEAN_MOTION_DDOT":0},{"OBJECT_NAME":"HULIANWANG DIGUI-53","OBJECT_ID":"2025-168E","EPOCH":"2026-03-05T23:33:27.583200","MEAN_MOTION":13.29338279,"ECCENTRICITY":0.00084284,"INCLINATION":50.0057,"RA_OF_ASC_NODE":335.8479,"ARG_OF_PERICENTER":143.1367,"MEAN_ANOMALY":217.0085,"EPHEMERIS_TYPE":0,"CLASSIFICATION_TYPE":"U","NORAD_CAT_ID":65110,"ELEMENT_SET_NO":999,"REV_AT_EPOCH":2896,"BSTAR":0.00018394399,"MEAN_MOTION_DOT":-3.9e-7,"MEAN_MOTION_DDOT":0},{"OBJECT_NAME":"HULIANWANG DIGUI-54","OBJECT_ID":"2025-168F","EPOCH":"2026-03-05T22:57:38.275200","MEAN_MOTION":13.2933553,"ECCENTRICITY":0.00100113,"INCLINATION":50.0008,"RA_OF_ASC_NODE":335.6276,"ARG_OF_PERICENTER":148.4861,"MEAN_ANOMALY":211.6612,"EPHEMERIS_TYPE":0,"CLASSIFICATION_TYPE":"U","NORAD_CAT_ID":65111,"ELEMENT_SET_NO":999,"REV_AT_EPOCH":2896,"BSTAR":0.00020779958,"MEAN_MOTION_DOT":-2.8e-7,"MEAN_MOTION_DDOT":0},{"OBJECT_NAME":"HULIANWANG DIGUI-55","OBJECT_ID":"2025-168G","EPOCH":"2026-03-05T23:21:19.376352","MEAN_MOTION":13.29338969,"ECCENTRICITY":0.00113026,"INCLINATION":50.0013,"RA_OF_ASC_NODE":335.7213,"ARG_OF_PERICENTER":144.2841,"MEAN_ANOMALY":215.8789,"EPHEMERIS_TYPE":0,"CLASSIFICATION_TYPE":"U","NORAD_CAT_ID":65112,"ELEMENT_SET_NO":999,"REV_AT_EPOCH":2896,"BSTAR":0.00017648687,"MEAN_MOTION_DOT":-4.2e-7,"MEAN_MOTION_DDOT":0},{"OBJECT_NAME":"HULIANWANG DIGUI-56","OBJECT_ID":"2025-168H","EPOCH":"2026-03-05T23:09:19.312704","MEAN_MOTION":13.29338348,"ECCENTRICITY":0.00110003,"INCLINATION":50.0005,"RA_OF_ASC_NODE":335.6623,"ARG_OF_PERICENTER":166.3084,"MEAN_ANOMALY":193.8088,"EPHEMERIS_TYPE":0,"CLASSIFICATION_TYPE":"U","NORAD_CAT_ID":65113,"ELEMENT_SET_NO":999,"REV_AT_EPOCH":2896,"BSTAR":0.00017332738,"MEAN_MOTION_DOT":-4.4e-7,"MEAN_MOTION_DDOT":0},{"OBJECT_NAME":"HULIANWANG DIGUI-57","OBJECT_ID":"2025-168J","EPOCH":"2026-03-05T22:45:38.671200","MEAN_MOTION":13.29335292,"ECCENTRICITY":0.0008748,"INCLINATION":50.0033,"RA_OF_ASC_NODE":335.632,"ARG_OF_PERICENTER":156.6851,"MEAN_ANOMALY":203.4419,"EPHEMERIS_TYPE":0,"CLASSIFICATION_TYPE":"U","NORAD_CAT_ID":65114,"ELEMENT_SET_NO":999,"REV_AT_EPOCH":2897,"BSTAR":0.00017696046,"MEAN_MOTION_DOT":-4.2e-7,"MEAN_MOTION_DDOT":0},{"OBJECT_NAME":"HULIANWANG DIGUI-58","OBJECT_ID":"2025-174A","EPOCH":"2026-03-05T21:59:46.885632","MEAN_MOTION":13.24421096,"ECCENTRICITY":0.00012626,"INCLINATION":86.4925,"RA_OF_ASC_NODE":286.9072,"ARG_OF_PERICENTER":88.0681,"MEAN_ANOMALY":272.0598,"EPHEMERIS_TYPE":0,"CLASSIFICATION_TYPE":"U","NORAD_CAT_ID":65164,"ELEMENT_SET_NO":999,"REV_AT_EPOCH":2712,"BSTAR":5.7229957e-5,"MEAN_MOTION_DOT":3.9e-7,"MEAN_MOTION_DDOT":0},{"OBJECT_NAME":"HULIANWANG DIGUI-59","OBJECT_ID":"2025-174B","EPOCH":"2026-03-05T22:10:39.272160","MEAN_MOTION":13.24421284,"ECCENTRICITY":0.00012483,"INCLINATION":86.4886,"RA_OF_ASC_NODE":286.8339,"ARG_OF_PERICENTER":87.2935,"MEAN_ANOMALY":272.8342,"EPHEMERIS_TYPE":0,"CLASSIFICATION_TYPE":"U","NORAD_CAT_ID":65165,"ELEMENT_SET_NO":999,"REV_AT_EPOCH":2712,"BSTAR":0.00010369335,"MEAN_MOTION_DOT":5.9e-7,"MEAN_MOTION_DDOT":0},{"OBJECT_NAME":"HULIANWANG DIGUI-60","OBJECT_ID":"2025-174C","EPOCH":"2026-03-05T22:21:29.668032","MEAN_MOTION":13.24421475,"ECCENTRICITY":0.00012231,"INCLINATION":86.4918,"RA_OF_ASC_NODE":286.9009,"ARG_OF_PERICENTER":89.63,"MEAN_ANOMALY":270.4974,"EPHEMERIS_TYPE":0,"CLASSIFICATION_TYPE":"U","NORAD_CAT_ID":65166,"ELEMENT_SET_NO":999,"REV_AT_EPOCH":2712,"BSTAR":0.00011700481,"MEAN_MOTION_DOT":6.5e-7,"MEAN_MOTION_DDOT":0},{"OBJECT_NAME":"HULIANWANG DIGUI-61","OBJECT_ID":"2025-174D","EPOCH":"2026-03-05T22:32:27.386304","MEAN_MOTION":13.2442009,"ECCENTRICITY":0.0001177,"INCLINATION":86.4926,"RA_OF_ASC_NODE":286.9211,"ARG_OF_PERICENTER":88.8514,"MEAN_ANOMALY":271.2755,"EPHEMERIS_TYPE":0,"CLASSIFICATION_TYPE":"U","NORAD_CAT_ID":65167,"ELEMENT_SET_NO":999,"REV_AT_EPOCH":2712,"BSTAR":0.00017885027,"MEAN_MOTION_DOT":9.1e-7,"MEAN_MOTION_DDOT":0},{"OBJECT_NAME":"HULIANWANG DIGUI-62","OBJECT_ID":"2025-174E","EPOCH":"2026-03-05T22:43:16.052448","MEAN_MOTION":13.2442144,"ECCENTRICITY":0.00011787,"INCLINATION":86.4868,"RA_OF_ASC_NODE":286.8075,"ARG_OF_PERICENTER":91.1836,"MEAN_ANOMALY":268.9433,"EPHEMERIS_TYPE":0,"CLASSIFICATION_TYPE":"U","NORAD_CAT_ID":65168,"ELEMENT_SET_NO":999,"REV_AT_EPOCH":2712,"BSTAR":0.00018822303,"MEAN_MOTION_DOT":9.5e-7,"MEAN_MOTION_DDOT":0},{"OBJECT_NAME":"HULIANWANG DIGUI-63","OBJECT_ID":"2025-174F","EPOCH":"2026-03-05T22:54:07.490304","MEAN_MOTION":13.24421782,"ECCENTRICITY":0.0001195,"INCLINATION":86.4921,"RA_OF_ASC_NODE":286.9147,"ARG_OF_PERICENTER":88.3973,"MEAN_ANOMALY":271.7298,"EPHEMERIS_TYPE":0,"CLASSIFICATION_TYPE":"U","NORAD_CAT_ID":65169,"ELEMENT_SET_NO":999,"REV_AT_EPOCH":2712,"BSTAR":0.00014608412,"MEAN_MOTION_DOT":7.7e-7,"MEAN_MOTION_DDOT":0},{"OBJECT_NAME":"HULIANWANG DIGUI-64","OBJECT_ID":"2025-174G","EPOCH":"2026-03-05T23:05:00.390048","MEAN_MOTION":13.24421824,"ECCENTRICITY":0.00011885,"INCLINATION":86.488,"RA_OF_ASC_NODE":286.8373,"ARG_OF_PERICENTER":91.0305,"MEAN_ANOMALY":269.0965,"EPHEMERIS_TYPE":0,"CLASSIFICATION_TYPE":"U","NORAD_CAT_ID":65170,"ELEMENT_SET_NO":999,"REV_AT_EPOCH":2712,"BSTAR":0.0001159203,"MEAN_MOTION_DOT":6.4e-7,"MEAN_MOTION_DDOT":0}]
