HULIANWANG DIGUI-49     
1 65106U 25168A   26064.93975255 -.00000036  00000+0  18905-3 0  9998
2 65106  50.0049 336.2742 0007422 154.4294 205.6947 13.29338863 28952
HULIANWANG DIGUI-50     
1 65107U 25168B   26064.93135004 -.00000041  00000+0  17975-3 0  9991
2 65107  50.0019 336.1734 0008390 140.4085 219.7401 13.29339475 28959
HULIANWANG DIGUI-51     
1 65108U 25168C   26064.92298462 -.00000046  00000+0  16817-3 0  9998
2 65108  50.0056 336.1997 0009745 140.3908 219.7678 13.29339746 28957
HULIANWANG DIGUI-52     
1 65109U 25168D   26064.91474561 -.00000037  00000+0  18805-3 0  9993
2 65109  50.0050 336.1392 0009621 153.2702 206.8668 13.29338403 28954
HULIANWANG DIGUI-53     
1 65110U 25168E   26064.98156925 -.00000039  00000+0  18394-3 0  9998
2 65110  50.0057 335.8479 0008428 143.1367 217.0085 13.29338279 28963
HULIANWANG DIGUI-54     
1 65111U 25168F   26064.95669300 -.00000028  00000+0  20780-3 0  9992
2 65111  50.0008 335.6276 0010011 148.4861 211.6612 13.29335530 28964
HULIANWANG DIGUI-55     
1 65112U 25168G   26064.97314093 -.00000042  00000+0  17649-3 0  9997
2 65112  50.0013 335.7213 0011302 144.2841 215.8789 13.29338969 28969
HULIANWANG DIGUI-56     
1 65113U 25168H   26064.96480686 -.00000044  00000+0  17333-3 0  9991
2 65113  50.0005 335.6623 0011000 166.3084 193.8088 13.29338348 28962
HULIANWANG DIGUI-57     
1 65114U 25168J   26064.94836425 -.00000042  00000+0  17696-3 0  9996
2 65114  50.0033 335.6320 0008748 156.6851 203.4419 13.29335292 28979
HULIANWANG DIGUI-58     
1 65164U 25174A   26064.91651488  .00000039  00000+0  57230-4 0  9993
2 65164  86.4925 286.9072 0001262  88.0681 272.0598 13.24421096 27121
HULIANWANG DIGUI-59     
1 65165U 25174B   26064.92406565  .00000059  00000+0  10369-3 0  9992
2 65165  86.4886 286.8339 0001248  87.2935 272.8342 13.24421284 27124
HULIANWANG DIGUI-60     
1 65166U 25174C   26064.93159338  .00000065  00000+0  11700-3 0  9994
2 65166  86.4918 286.9009 0001223  89.6300 270.4974 13.24421475 27128
HULIANWANG DIGUI-61     
1 65167U 25174D   26064.93920586  .00000091  00000+0  17885-3 0  9995
2 65167  86.4926 286.9211 0001177  88.8514 271.2755 13.24420090 27127
HULIANWANG DIGUI-62     
1 65168U 25174E   26064.94671357  .00000095  00000+0  18822-3 0  9992
2 65168  86.4868 286.8075 0001178  91.1836 268.9433 13.24421440 27121
HULIANWANG DIGUI-63     
1 65169U 25174F   26064.95425336  .00000077  00000+0  14608-3 0  9996
2 65169  86.4921 286.9147 0001195  88.3973 271.7298 13.24421782 27122
HULIANWANG DIGUI-64     
1 65170U 25174G   26064.96181007  .00000064  00000+0  11592-3 0  9998
2 65170  86.4880 286.8373 0001188  91.0305 269.0965 13.24421824 27128
